CCSDS_OMM_VERS = 2.0
CREATION_DATE  = 
ORIGINATOR     = 

OBJECT_NAME    = SL-14 R/B
OBJECT_ID      = 1986-046B
CENTER_NAME    = EARTH
REF_FRAME      = TEME
TIME_SYSTEM    = UTC
MEAN_ELEMENT_THEORY = SGP/SGP4

EPOCH          = 2025-12-02T06:34:07.576320
MEAN_MOTION    = 14.85466937
ECCENTRICITY   = .00229106
INCLINATION    = 82.4813
RA_OF_ASC_NODE = 172.1983
ARG_OF_PERICENTER = 186.4336
MEAN_ANOMALY   = 173.6589

EPHEMERIS_TYPE = 0
CLASSIFICATION_TYPE = U
NORAD_CAT_ID   = 16792
ELEMENT_SET_NO = 999
REV_AT_EPOCH   = 11194
BSTAR          = .75567631E-4
MEAN_MOTION_DOT = .679E-5
MEAN_MOTION_DDOT = 0

CCSDS_OMM_VERS = 2.0
CREATION_DATE  = 
ORIGINATOR     = 

OBJECT_NAME    = SL-14 R/B
OBJECT_ID      = 1986-055B
CENTER_NAME    = EARTH
REF_FRAME      = TEME
TIME_SYSTEM    = UTC
MEAN_ELEMENT_THEORY = SGP/SGP4

EPOCH          = 2025-12-02T05:11:35.226816
MEAN_MOTION    = 14.85514151
ECCENTRICITY   = .00176361
INCLINATION    = 82.5213
RA_OF_ASC_NODE = 218.2601
ARG_OF_PERICENTER = 297.2103
MEAN_ANOMALY   = 185.2729

EPHEMERIS_TYPE = 0
CLASSIFICATION_TYPE = U
NORAD_CAT_ID   = 16882
ELEMENT_SET_NO = 999
REV_AT_EPOCH   = 10489
BSTAR          = .77336806E-4
MEAN_MOTION_DOT = .693E-5
MEAN_MOTION_DDOT = 0

CCSDS_OMM_VERS = 2.0
CREATION_DATE  = 
ORIGINATOR     = 

OBJECT_NAME    = AJISAI (EGS)
OBJECT_ID      = 1986-061A
CENTER_NAME    = EARTH
REF_FRAME      = TEME
TIME_SYSTEM    = UTC
MEAN_ELEMENT_THEORY = SGP/SGP4

EPOCH          = 2025-12-02T07:25:40.637568
MEAN_MOTION    = 12.44514112
ECCENTRICITY   = .00112591
INCLINATION    = 50.0113
RA_OF_ASC_NODE = 32.7892
ARG_OF_PERICENTER = 39.7200
MEAN_ANOMALY   = 58.1780

EPHEMERIS_TYPE = 0
CLASSIFICATION_TYPE = U
NORAD_CAT_ID   = 16908
ELEMENT_SET_NO = 999
REV_AT_EPOCH   = 45587
BSTAR          = -.38841477E-4
MEAN_MOTION_DOT = -.103E-5
MEAN_MOTION_DDOT = 0

CCSDS_OMM_VERS = 2.0
CREATION_DATE  = 
ORIGINATOR     = 

OBJECT_NAME    = COSMOS 1812
OBJECT_ID      = 1987-003A
CENTER_NAME    = EARTH
REF_FRAME      = TEME
TIME_SYSTEM    = UTC
MEAN_ELEMENT_THEORY = SGP/SGP4

EPOCH          = 2025-12-02T07:19:53.812416
MEAN_MOTION    = 15.72942468
ECCENTRICITY   = .00071381
INCLINATION    = 82.4871
RA_OF_ASC_NODE = 303.2906
ARG_OF_PERICENTER = 99.0609
MEAN_ANOMALY   = 261.1462

EPHEMERIS_TYPE = 0
CLASSIFICATION_TYPE = U
NORAD_CAT_ID   = 17295
ELEMENT_SET_NO = 999
REV_AT_EPOCH   = 12901
BSTAR          = .68837646E-3
MEAN_MOTION_DOT = .94414E-3
MEAN_MOTION_DDOT = 0

CCSDS_OMM_VERS = 2.0
CREATION_DATE  = 
ORIGINATOR     = 

OBJECT_NAME    = SL-14 R/B
OBJECT_ID      = 1987-024B
CENTER_NAME    = EARTH
REF_FRAME      = TEME
TIME_SYSTEM    = UTC
MEAN_ELEMENT_THEORY = SGP/SGP4

EPOCH          = 2025-12-02T01:45:14.205312
MEAN_MOTION    = 14.86006781
ECCENTRICITY   = .00172299
INCLINATION    = 82.5281
RA_OF_ASC_NODE = 184.4745
ARG_OF_PERICENTER = 220.7296
MEAN_ANOMALY   = 139.2634

EPHEMERIS_TYPE = 0
CLASSIFICATION_TYPE = U
NORAD_CAT_ID   = 17567
ELEMENT_SET_NO = 999
REV_AT_EPOCH   = 7363
BSTAR          = .6391905E-4
MEAN_MOTION_DOT = .584E-5
MEAN_MOTION_DDOT = 0

CCSDS_OMM_VERS = 2.0
CREATION_DATE  = 
ORIGINATOR     = 

OBJECT_NAME    = COSMOS 1833
OBJECT_ID      = 1987-027A
CENTER_NAME    = EARTH
REF_FRAME      = TEME
TIME_SYSTEM    = UTC
MEAN_ELEMENT_THEORY = SGP/SGP4

EPOCH          = 2025-12-02T05:46:35.133888
MEAN_MOTION    = 14.13018353
ECCENTRICITY   = .00220924
INCLINATION    = 70.9126
RA_OF_ASC_NODE = 170.8484
ARG_OF_PERICENTER = 346.5142
MEAN_ANOMALY   = 13.5386

EPHEMERIS_TYPE = 0
CLASSIFICATION_TYPE = U
NORAD_CAT_ID   = 17589
ELEMENT_SET_NO = 999
REV_AT_EPOCH   = 99654
BSTAR          = .47919431E-4
MEAN_MOTION_DOT = .41E-6
MEAN_MOTION_DDOT = 0

CCSDS_OMM_VERS = 2.0
CREATION_DATE  = 
ORIGINATOR     = 

OBJECT_NAME    = SL-16 R/B
OBJECT_ID      = 1987-027B
CENTER_NAME    = EARTH
REF_FRAME      = TEME
TIME_SYSTEM    = UTC
MEAN_ELEMENT_THEORY = SGP/SGP4

EPOCH          = 2025-12-01T20:40:55.828992
MEAN_MOTION    = 14.17151688
ECCENTRICITY   = .00074697
INCLINATION    = 71.0018
RA_OF_ASC_NODE = 122.6392
ARG_OF_PERICENTER = 271.0721
MEAN_ANOMALY   = 88.9547

EPHEMERIS_TYPE = 0
CLASSIFICATION_TYPE = U
NORAD_CAT_ID   = 17590
ELEMENT_SET_NO = 999
REV_AT_EPOCH   = 148
BSTAR          = .63969699E-4
MEAN_MOTION_DOT = .81E-6
MEAN_MOTION_DDOT = 0

CCSDS_OMM_VERS = 2.0
CREATION_DATE  = 
ORIGINATOR     = 

OBJECT_NAME    = SL-14 R/B
OBJECT_ID      = 1987-038B
CENTER_NAME    = EARTH
REF_FRAME      = TEME
TIME_SYSTEM    = UTC
MEAN_ELEMENT_THEORY = SGP/SGP4

EPOCH          = 2025-12-02T03:39:50.358816
MEAN_MOTION    = 14.85245282
ECCENTRICITY   = .00205887
INCLINATION    = 82.5026
RA_OF_ASC_NODE = 28.6722
ARG_OF_PERICENTER = 124.6694
MEAN_ANOMALY   = 235.6466

EPHEMERIS_TYPE = 0
CLASSIFICATION_TYPE = U
NORAD_CAT_ID   = 17912
ELEMENT_SET_NO = 999
REV_AT_EPOCH   = 6475
BSTAR          = .64682831E-4
MEAN_MOTION_DOT = .581E-5
MEAN_MOTION_DDOT = 0

CCSDS_OMM_VERS = 2.0
CREATION_DATE  = 
ORIGINATOR     = 

OBJECT_NAME    = COSMOS 1844
OBJECT_ID      = 1987-041A
CENTER_NAME    = EARTH
REF_FRAME      = TEME
TIME_SYSTEM    = UTC
MEAN_ELEMENT_THEORY = SGP/SGP4

EPOCH          = 2025-12-02T04:00:06.254784
MEAN_MOTION    = 14.14527791
ECCENTRICITY   = .00304687
INCLINATION    = 70.8991
RA_OF_ASC_NODE = 239.8708
ARG_OF_PERICENTER = 173.8656
MEAN_ANOMALY   = 186.2845

EPHEMERIS_TYPE = 0
CLASSIFICATION_TYPE = U
NORAD_CAT_ID   = 17973
ELEMENT_SET_NO = 999
REV_AT_EPOCH   = 98979
BSTAR          = -.5691875E-4
MEAN_MOTION_DOT = -.158E-5
MEAN_MOTION_DDOT = 0

CCSDS_OMM_VERS = 2.0
CREATION_DATE  = 
ORIGINATOR     = 

OBJECT_NAME    = SL-14 R/B
OBJECT_ID      = 1987-055B
CENTER_NAME    = EARTH
REF_FRAME      = TEME
TIME_SYSTEM    = UTC
MEAN_ELEMENT_THEORY = SGP/SGP4

EPOCH          = 2025-12-02T06:44:49.339104
MEAN_MOTION    = 14.85503279
ECCENTRICITY   = .00201039
INCLINATION    = 82.4999
RA_OF_ASC_NODE = 80.8441
ARG_OF_PERICENTER = 339.5843
MEAN_ANOMALY   = 20.4567

EPHEMERIS_TYPE = 0
CLASSIFICATION_TYPE = U
NORAD_CAT_ID   = 18153
ELEMENT_SET_NO = 999
REV_AT_EPOCH   = 5547
BSTAR          = .82371217E-4
MEAN_MOTION_DOT = .737E-5
MEAN_MOTION_DDOT = 0

CCSDS_OMM_VERS = 2.0
CREATION_DATE  = 
ORIGINATOR     = 

OBJECT_NAME    = COSMOS 1867
OBJECT_ID      = 1987-060A
CENTER_NAME    = EARTH
REF_FRAME      = TEME
TIME_SYSTEM    = UTC
MEAN_ELEMENT_THEORY = SGP/SGP4

EPOCH          = 2025-12-02T02:57:50.358528
MEAN_MOTION    = 14.31483326
ECCENTRICITY   = .00136338
INCLINATION    = 65.0098
RA_OF_ASC_NODE = 219.9321
ARG_OF_PERICENTER = 270.0749
MEAN_ANOMALY   = 89.8773

EPHEMERIS_TYPE = 0
CLASSIFICATION_TYPE = U
NORAD_CAT_ID   = 18187
ELEMENT_SET_NO = 999
REV_AT_EPOCH   = 597
BSTAR          = .30275224E-4
MEAN_MOTION_DOT = -.2E-6
MEAN_MOTION_DDOT = 0

CCSDS_OMM_VERS = 2.0
CREATION_DATE  = 
ORIGINATOR     = 

OBJECT_NAME    = COSMOS 1892
OBJECT_ID      = 1987-088A
CENTER_NAME    = EARTH
REF_FRAME      = TEME
TIME_SYSTEM    = UTC
MEAN_ELEMENT_THEORY = SGP/SGP4

EPOCH          = 2025-12-01T22:59:15.476064
MEAN_MOTION    = 16.35834047
ECCENTRICITY   = .00068203
INCLINATION    = 82.4559
RA_OF_ASC_NODE = 55.6045
ARG_OF_PERICENTER = 269.6843
MEAN_ANOMALY   = 90.3672

EPHEMERIS_TYPE = 0
CLASSIFICATION_TYPE = U
NORAD_CAT_ID   = 18421
ELEMENT_SET_NO = 999
REV_AT_EPOCH   = 8960
BSTAR          = .53123849E-3
MEAN_MOTION_DOT = .4125319E-1
MEAN_MOTION_DDOT = -.1243662E-5

