SL-14 R/B               
1 16792U 86046B   25336.27369880  .00000679  00000+0  75568-4 0  9997
2 16792  82.4813 172.1983 0022910 186.4336 173.6589 14.85466937111947
SL-14 R/B               
1 16882U 86055B   25336.21637994  .00000693  00000+0  77337-4 0  9997
2 16882  82.5213 218.2601 0017636 297.2103 185.2729 14.85514151104896
AJISAI (EGS)            
1 16908U 86061A   25336.30949812 -.00000103  00000+0 -38841-4 0  9993
2 16908  50.0113  32.7892 0011259  39.7200  58.1780 12.44514112455879
COSMOS 1812             
1 17295U 87003A   25336.30548394  .00094414  00000+0  68838-3 0  9994
2 17295  82.4871 303.2906 0007138  99.0609 261.1462 15.72942468129014
SL-14 R/B               
1 17567U 87024B   25336.07308108  .00000584  00000+0  63919-4 0  9991
2 17567  82.5281 184.4745 0017229 220.7296 139.2634 14.86006781 73634
COSMOS 1833             
1 17589U 87027A   25336.24068442  .00000041  00000+0  47919-4 0  9991
2 17589  70.9126 170.8484 0022092 346.5142  13.5386 14.13018353996547
SL-16 R/B               
1 17590U 87027B   25335.86175728  .00000081  00000+0  63970-4 0  9995
2 17590  71.0018 122.6392 0007469 271.0721  88.9547 14.17151688  1488
SL-14 R/B               
1 17912U 87038B   25336.15266619  .00000581  00000+0  64683-4 0  9995
2 17912  82.5026  28.6722 0020588 124.6694 235.6466 14.85245282 64752
COSMOS 1844             
1 17973U 87041A   25336.16673906 -.00000158  00000+0 -56919-4 0  9993
2 17973  70.8991 239.8708 0030468 173.8656 186.2845 14.14527791989794
SL-14 R/B               
1 18153U 87055B   25336.28112661  .00000737  00000+0  82371-4 0  9990
2 18153  82.4999  80.8441 0020103 339.5843  20.4567 14.85503279 55476
COSMOS 1867             
1 18187U 87060A   25336.12349952 -.00000020  00000+0  30275-4 0  9993
2 18187  65.0098 219.9321 0013633 270.0749  89.8773 14.31483326  5975
COSMOS 1892             
1 18421U 87088A   25335.95781801  .04125319 -12437-5  53124-3 0  9990
2 18421  82.4559  55.6045 0006820 269.6843  90.3672 16.35834047 89601
